start=new Date('2023-01-06T00:00:00.000Z').valueOf();
sats=[{"TLE_LINE2":"2 50829  53.2195 332.3559 0002853  25.7221 334.3912 15.08857575 55420","INCLINATION":"53.2195","OBJECT_ID":"2022-001AC","REV_AT_EPOCH":"5542","ARG_OF_PERICENTER":"25.7221","FILE":"3732963","TIME_SYSTEM":"UTC","DECAY_DATE":null,"EPOCH":"2023-01-05T15:07:33.186144","MEAN_ELEMENT_THEORY":"SGP4","MEAN_ANOMALY":"334.3912","OBJECT_NAME":"STARLINK-3294","LAUNCH_DATE":"2022-01-06","RA_OF_ASC_NODE":"332.3559","SEMIMAJOR_AXIS":"6917.827","MEAN_MOTION_DOT":"0.00002667","NORAD_CAT_ID":"50829","MEAN_MOTION_DDOT":"0.0000000000000","TLE_LINE1":"1 50829U 22001AC  23005.63024521  .00002667  00000-0  18552-3 0  9997","SITE":"AFETR","EPHEMERIS_TYPE":"0","OBJECT_TYPE":"PAYLOAD","COUNTRY_CODE":"US","APOAPSIS":"541.665","MEAN_MOTION":"15.08857575","ECCENTRICITY":"0.00028530","PERIAPSIS":"537.718","PERIOD":"95.436","CLASSIFICATION_TYPE":"U","RCS_SIZE":"LARGE","REF_FRAME":"TEME","CENTER_NAME":"EARTH","BSTAR":"0.00018552000000","ELEMENT_SET_NO":"999","GP_ID":"222290253"},{"ELEMENT_SET_NO":"999","BSTAR":"0.00025232000000","CENTER_NAME":"EARTH","REF_FRAME":"TEME","GP_ID":"222290499","RCS_SIZE":"LARGE","CLASSIFICATION_TYPE":"U","ECCENTRICITY":"0.00027530","PERIOD":"95.436","PERIAPSIS":"537.785","OBJECT_TYPE":"PAYLOAD","EPHEMERIS_TYPE":"0","MEAN_MOTION":"15.08858347","APOAPSIS":"541.594","COUNTRY_CODE":"US","NORAD_CAT_ID":"50830","MEAN_MOTION_DOT":"0.00003732","SITE":"AFETR","TLE_LINE1":"1 50830U 22001AD  23005.78020440  .00003732  00000-0  25232-3 0  9998","MEAN_MOTION_DDOT":"0.0000000000000","EPOCH":"2023-01-05T18:43:29.660160","MEAN_ELEMENT_THEORY":"SGP4","DECAY_DATE":null,"SEMIMAJOR_AXIS":"6917.824","LAUNCH_DATE":"2022-01-06","RA_OF_ASC_NODE":"341.6709","OBJECT_NAME":"STARLINK-3278","MEAN_ANOMALY":"336.3087","TIME_SYSTEM":"UTC","FILE":"3732963","ARG_OF_PERICENTER":"23.8032","REV_AT_EPOCH":"5531","OBJECT_ID":"2022-001AD","INCLINATION":"53.2154","TLE_LINE2":"2 50830  53.2154 341.6709 0002753  23.8032 336.3087 15.08858347 55316"},{"MEAN_MOTION_DDOT":"0.0000000000000","TLE_LINE1":"1 50831U 22001AE  23005.32208778  .00007634  00000-0  49687-3 0  9996","SITE":"AFETR","MEAN_MOTION_DOT":"0.00007634","NORAD_CAT_ID":"50831","MEAN_ANOMALY":"336.2882","OBJECT_NAME":"STARLINK-3299","RA_OF_ASC_NODE":"333.7376","LAUNCH_DATE":"2022-01-06","SEMIMAJOR_AXIS":"6917.798","DECAY_DATE":null,"EPOCH":"2023-01-05T07:43:48.384192","MEAN_ELEMENT_THEORY":"SGP4","OBJECT_ID":"2022-001AE","REV_AT_EPOCH":"5538","FILE":"3732939","ARG_OF_PERICENTER":"23.8259","TIME_SYSTEM":"UTC","TLE_LINE2":"2 50831  53.2187 333.7376 0003221  23.8259 336.2882 15.08866968 55384","INCLINATION":"53.2187","GP_ID":"222263801","REF_FRAME":"TEME","CENTER_NAME":"EARTH","ELEMENT_SET_NO":"999","BSTAR":"0.00049687000000","CLASSIFICATION_TYPE":"U","RCS_SIZE":"LARGE","PERIAPSIS":"537.435","PERIOD":"95.436","ECCENTRICITY":"0.00032210","COUNTRY_CODE":"US","APOAPSIS":"541.891","MEAN_MOTION":"15.08866968","EPHEMERIS_TYPE":"0","OBJECT_TYPE":"PAYLOAD"},{"ECCENTRICITY":"0.00023740","PERIOD":"95.437","PERIAPSIS":"538.053","EPHEMERIS_TYPE":"0","OBJECT_TYPE":"PAYLOAD","COUNTRY_CODE":"US","MEAN_MOTION":"15.08856396","APOAPSIS":"541.338","CENTER_NAME":"EARTH","REF_FRAME":"TEME","ELEMENT_SET_NO":"999","BSTAR":"0.00014761000000","GP_ID":"222290003","CLASSIFICATION_TYPE":"U","RCS_SIZE":"LARGE","REV_AT_EPOCH":"5529","OBJECT_ID":"2022-001AF","TIME_SYSTEM":"UTC","ARG_OF_PERICENTER":"30.8918","FILE":"3732963","INCLINATION":"53.2186","TLE_LINE2":"2 50832  53.2186 342.2939 0002374  30.8918 329.2214 15.08856396 55297","MEAN_MOTION_DOT":"0.00002063","NORAD_CAT_ID":"50832","TLE_LINE1":"1 50832U 22001AF  23005.64404516  .00002063  00000-0  14761-3 0  9996","MEAN_MOTION_DDOT":"0.0000000000000","SITE":"AFETR","MEAN_ELEMENT_THEORY":"SGP4","EPOCH":"2023-01-05T15:27:25.501824","DECAY_DATE":null,"MEAN_ANOMALY":"329.2214","RA_OF_ASC_NODE":"342.2939","LAUNCH_DATE":"2022-01-06","SEMIMAJOR_AXIS":"6917.830","OBJECT_NAME":"STARLINK-3328"},{"REF_FRAME":"TEME","CENTER_NAME":"EARTH","BSTAR":"0.00018557000000","ELEMENT_SET_NO":"999","GP_ID":"222290754","CLASSIFICATION_TYPE":"U","RCS_SIZE":"LARGE","ECCENTRICITY":"0.00016080","PERIAPSIS":"538.562","PERIOD":"95.436","EPHEMERIS_TYPE":"0","OBJECT_TYPE":"PAYLOAD","COUNTRY_CODE":"US","APOAPSIS":"540.787","MEAN_MOTION":"15.08863102","MEAN_MOTION_DOT":"0.00002668","NORAD_CAT_ID":"50833","MEAN_MOTION_DDOT":"0.0000000000000","TLE_LINE1":"1 50833U 22001AG  23005.59343932  .00002668  00000-0  18557-3 0  9993","SITE":"AFETR","DECAY_DATE":null,"EPOCH":"2023-01-05T14:14:33.157248","MEAN_ELEMENT_THEORY":"SGP4","MEAN_ANOMALY":"287.7309","OBJECT_NAME":"STARLINK-3316","SEMIMAJOR_AXIS":"6917.810","LAUNCH_DATE":"2022-01-06","RA_OF_ASC_NODE":"332.5187","OBJECT_ID":"2022-001AG","REV_AT_EPOCH":"5542","FILE":"3732963","ARG_OF_PERICENTER":"72.3859","TIME_SYSTEM":"UTC","TLE_LINE2":"2 50833  53.2202 332.5187 0001608  72.3859 287.7309 15.08863102 55429","INCLINATION":"53.2202"},{"CLASSIFICATION_TYPE":"U","RCS_SIZE":"LARGE","GP_ID":"222290999","REF_FRAME":"TEME","CENTER_NAME":"EARTH","BSTAR":"0.00027411000000","ELEMENT_SET_NO":"999","COUNTRY_CODE":"US","APOAPSIS":"541.676","MEAN_MOTION":"15.08862318","OBJECT_TYPE":"PAYLOAD","EPHEMERIS_TYPE":"0","PERIAPSIS":"537.679","PERIOD":"95.436","ECCENTRICITY":"0.00028890","MEAN_ANOMALY":"333.7130","OBJECT_NAME":"STARLINK-3331","LAUNCH_DATE":"2022-01-06","SEMIMAJOR_AXIS":"6917.812","RA_OF_ASC_NODE":"341.7376","DECAY_DATE":null,"EPOCH":"2023-01-05T18:22:17.875488","MEAN_ELEMENT_THEORY":"SGP4","MEAN_MOTION_DDOT":"0.0000000000000","TLE_LINE1":"1 50834U 22001AH  23005.76548467  .00004079  00000-0  27411-3 0  9990","SITE":"AFETR","MEAN_MOTION_DOT":"0.00004079","NORAD_CAT_ID":"50834","TLE_LINE2":"2 50834  53.2164 341.7376 0002889  26.4009 333.7130 15.08862318 55307","INCLINATION":"53.2164","OBJECT_ID":"2022-001AH","REV_AT_EPOCH":"5530","FILE":"3732963","ARG_OF_PERICENTER":"26.4009","TIME_SYSTEM":"UTC"},{"COUNTRY_CODE":"US","APOAPSIS":"541.091","MEAN_MOTION":"15.08864331","EPHEMERIS_TYPE":"0","OBJECT_TYPE":"PAYLOAD","PERIAPSIS":"538.251","PERIOD":"95.436","ECCENTRICITY":"0.00020520","CLASSIFICATION_TYPE":"U","RCS_SIZE":"LARGE","GP_ID":"222289253","REF_FRAME":"TEME","CENTER_NAME":"EARTH","BSTAR":"0.00038762000000","ELEMENT_SET_NO":"999","TLE_LINE2":"2 50835  53.2185 342.3652 0002052  42.4203 317.6948 15.08864331 55283","INCLINATION":"53.2185","OBJECT_ID":"2022-001AJ","REV_AT_EPOCH":"5528","ARG_OF_PERICENTER":"42.4203","FILE":"3732963","TIME_SYSTEM":"UTC","MEAN_ANOMALY":"317.6948","OBJECT_NAME":"STARLINK-3310","LAUNCH_DATE":"2022-01-06","RA_OF_ASC_NODE":"342.3652","SEMIMAJOR_AXIS":"6917.806","DECAY_DATE":null,"EPOCH":"2023-01-05T15:00:55.925856","MEAN_ELEMENT_THEORY":"SGP4","MEAN_MOTION_DDOT":"0.0000000000000","TLE_LINE1":"1 50835U 22001AJ  23005.62564729  .00005890  00000-0  38762-3 0  9998","SITE":"AFETR","MEAN_MOTION_DOT":"0.00005890","NORAD_CAT_ID":"50835"},{"COUNTRY_CODE":"US","APOAPSIS":"541.486","MEAN_MOTION":"15.08863410","OBJECT_TYPE":"PAYLOAD","EPHEMERIS_TYPE":"0","PERIAPSIS":"537.861","PERIOD":"95.436","ECCENTRICITY":"0.00026200","CLASSIFICATION_TYPE":"U","RCS_SIZE":"LARGE","GP_ID":"222289503","REF_FRAME":"TEME","CENTER_NAME":"EARTH","ELEMENT_SET_NO":"999","BSTAR":"0.00037454000000","TLE_LINE2":"2 50836  53.2181 342.3272 0002620  27.5564 332.5567 15.08863410 55182","INCLINATION":"53.2181","OBJECT_ID":"2022-001AK","REV_AT_EPOCH":"5518","ARG_OF_PERICENTER":"27.5564","FILE":"3732963","TIME_SYSTEM":"UTC","MEAN_ANOMALY":"332.5567","OBJECT_NAME":"STARLINK-3330","LAUNCH_DATE":"2022-01-06","RA_OF_ASC_NODE":"342.3272","SEMIMAJOR_AXIS":"6917.809","DECAY_DATE":null,"MEAN_ELEMENT_THEORY":"SGP4","EPOCH":"2023-01-05T15:16:49.665216","MEAN_MOTION_DDOT":"0.0000000000000","TLE_LINE1":"1 50836U 22001AK  23005.63668594  .00005681  00000-0  37454-3 0  9990","SITE":"AFETR","MEAN_MOTION_DOT":"0.00005681","NORAD_CAT_ID":"50836"},{"ELEMENT_SET_NO":"999","BSTAR":"0.00013278000000","CENTER_NAME":"EARTH","REF_FRAME":"TEME","GP_ID":"222290254","RCS_SIZE":"LARGE","CLASSIFICATION_TYPE":"U","ECCENTRICITY":"0.00028570","PERIOD":"95.437","PERIAPSIS":"537.720","EPHEMERIS_TYPE":"0","OBJECT_TYPE":"PAYLOAD","MEAN_MOTION":"15.08855866","APOAPSIS":"541.673","COUNTRY_CODE":"US","NORAD_CAT_ID":"50837","MEAN_MOTION_DOT":"0.00001826","SITE":"AFETR","TLE_LINE1":"1 50837U 22001AL  23005.59712000  .00001826  00000-0  13278-3 0  9993","MEAN_MOTION_DDOT":"0.0000000000000","MEAN_ELEMENT_THEORY":"SGP4","EPOCH":"2023-01-05T14:19:51.168000","DECAY_DATE":null,"RA_OF_ASC_NODE":"332.5050","LAUNCH_DATE":"2022-01-06","SEMIMAJOR_AXIS":"6917.832","OBJECT_NAME":"STARLINK-3318","MEAN_ANOMALY":"330.6417","TIME_SYSTEM":"UTC","ARG_OF_PERICENTER":"29.4735","FILE":"3732963","REV_AT_EPOCH":"5542","OBJECT_ID":"2022-001AL","INCLINATION":"53.2166","TLE_LINE2":"2 50837  53.2166 332.5050 0002857  29.4735 330.6417 15.08855866 55420"},{"MEAN_MOTION_DOT":"0.00025106","NORAD_CAT_ID":"50838","MEAN_MOTION_DDOT":"0.0000000000000","TLE_LINE1":"1 50838U 22001AM  23005.66549628  .00025106  00000-0  15568-2 0  9996","SITE":"AFETR","DECAY_DATE":null,"MEAN_ELEMENT_THEORY":"SGP4","EPOCH":"2023-01-05T15:58:18.878592","MEAN_ANOMALY":"294.4814","OBJECT_NAME":"STARLINK-3322","LAUNCH_DATE":"2022-01-06","RA_OF_ASC_NODE":"342.1426","SEMIMAJOR_AXIS":"6915.533","OBJECT_ID":"2022-001AM","REV_AT_EPOCH":"5529","ARG_OF_PERICENTER":"65.6558","FILE":"3732963","TIME_SYSTEM":"UTC","TLE_LINE2":"2 50838  53.2166 342.1426 0003645  65.6558 294.4814 15.09608234 55295","INCLINATION":"53.2166","REF_FRAME":"TEME","CENTER_NAME":"EARTH","ELEMENT_SET_NO":"999","BSTAR":"0.00155680000000","GP_ID":"222290500","CLASSIFICATION_TYPE":"U","RCS_SIZE":"LARGE","ECCENTRICITY":"0.00036450","PERIAPSIS":"534.877","PERIOD":"95.389","EPHEMERIS_TYPE":"0","OBJECT_TYPE":"PAYLOAD","COUNTRY_CODE":"US","APOAPSIS":"539.919","MEAN_MOTION":"15.09608234"}];
